{
  "type": "FeatureCollection",
  "features": [
    {
      "type": "Feature",
      "properties": {
        "norad_id": 66355,
        "name": "STARLINK-35861",
        "group": "last-30-days",
        "lat": 0.12429413372912215,
        "lon": -34.8832655630684,
        "alt_km": 369.096987419166,
        "timestamp": "2025-12-02T15:49:05.947457+00:00",
        "meta_object_name": "STARLINK-35861",
        "meta_object_id": "2025-254H",
        "meta_epoch": "2025-12-02T06:00:02.999808",
        "meta_mean_motion": 15.68535407,
        "meta_eccentricity": 0.00013101,
        "meta_inclination": 53.1589,
        "meta_ra_of_asc_node": 327.0344,
        "meta_arg_of_pericenter": 90.9807,
        "meta_mean_anomaly": 119.4254,
        "meta_ephemeris_type": 0,
        "meta_classification_type": "U",
        "meta_norad_cat_id": 66355,
        "meta_element_set_no": 999,
        "meta_rev_at_epoch": 523,
        "meta_bstar": -0.019628435,
        "meta_mean_motion_dot": -0.01997297,
        "meta_mean_motion_ddot": 0,
        "tle_line1": "1 66355U 25254H   25336.25003472 -.01997297  00000+0 -19628-1 0  9997",
        "tle_line2": "2 66355  53.1589 327.0344 0001310  90.9807 119.4254 15.68535407  5239"
      },
      "geometry": {
        "type": "Point",
        "coordinates": [
          -34.8832655630684,
          0.12429413372912215
        ]
      }
    },
    {
      "type": "Feature",
      "properties": {
        "norad_id": 66356,
        "name": "STARLINK-35851",
        "group": "last-30-days",
        "lat": 1.6579475338831213,
        "lon": -33.7375533650076,
        "alt_km": 368.9260010335538,
        "timestamp": "2025-12-02T15:49:05.947468+00:00",
        "meta_object_name": "STARLINK-35851",
        "meta_object_id": "2025-254J",
        "meta_epoch": "2025-12-02T06:00:02.999808",
        "meta_mean_motion": 15.68537177,
        "meta_eccentricity": 0.0001311,
        "meta_inclination": 53.1591,
        "meta_ra_of_asc_node": 327.0298,
        "meta_arg_of_pericenter": 95.958,
        "meta_mean_anomaly": 116.3632,
        "meta_ephemeris_type": 0,
        "meta_classification_type": "U",
        "meta_norad_cat_id": 66356,
        "meta_element_set_no": 999,
        "meta_rev_at_epoch": 523,
        "meta_bstar": -0.019642643,
        "meta_mean_motion_dot": -0.01998698,
        "meta_mean_motion_ddot": 0,
        "tle_line1": "1 66356U 25254J   25336.25003472 -.01998698  00000+0 -19643-1 0  9991",
        "tle_line2": "2 66356  53.1591 327.0298 0001311  95.9580 116.3632 15.68537177  5237"
      },
      "geometry": {
        "type": "Point",
        "coordinates": [
          -33.7375533650076,
          1.6579475338831213
        ]
      }
    },
    {
      "type": "Feature",
      "properties": {
        "norad_id": 66357,
        "name": "STARLINK-35817",
        "group": "last-30-days",
        "lat": 3.191083872977988,
        "lon": -32.58944288054394,
        "alt_km": 368.6720019300001,
        "timestamp": "2025-12-02T15:49:05.947480+00:00",
        "meta_object_name": "STARLINK-35817",
        "meta_object_id": "2025-254K",
        "meta_epoch": "2025-12-02T06:00:02.999808",
        "meta_mean_motion": 15.68537032,
        "meta_eccentricity": 0.00013454,
        "meta_inclination": 53.159,
        "meta_ra_of_asc_node": 327.0257,
        "meta_arg_of_pericenter": 94.3334,
        "meta_mean_anomaly": 119.9059,
        "meta_ephemeris_type": 0,
        "meta_classification_type": "U",
        "meta_norad_cat_id": 66357,
        "meta_element_set_no": 999,
        "meta_rev_at_epoch": 523,
        "meta_bstar": -0.019654089,
        "meta_mean_motion_dot": -0.0199974,
        "meta_mean_motion_ddot": 0,
        "tle_line1": "1 66357U 25254K   25336.25003472 -.01999740  00000+0 -19654-1 0  9993",
        "tle_line2": "2 66357  53.1590 327.0257 0001345  94.3334 119.9059 15.68537032  5231"
      },
      "geometry": {
        "type": "Point",
        "coordinates": [
          -32.58944288054394,
          3.191083872977988
        ]
      }
    },
    {
      "type": "Feature",
      "properties": {
        "norad_id": 66358,
        "name": "STARLINK-35807",
        "group": "last-30-days",
        "lat": 4.723955582741952,
        "lon": -31.437129691218956,
        "alt_km": 368.50783253835834,
        "timestamp": "2025-12-02T15:49:05.947490+00:00",
        "meta_object_name": "STARLINK-35807",
        "meta_object_id": "2025-254L",
        "meta_epoch": "2025-12-02T06:00:02.999808",
        "meta_mean_motion": 15.6853491,
        "meta_eccentricity": 0.00012129,
        "meta_inclination": 53.1592,
        "meta_ra_of_asc_node": 327.0216,
        "meta_arg_of_pericenter": 101.0657,
        "meta_mean_anomaly": 115.091,
        "meta_ephemeris_type": 0,
        "meta_classification_type": "U",
        "meta_norad_cat_id": 66358,
        "meta_element_set_no": 999,
        "meta_rev_at_epoch": 523,
        "meta_bstar": -0.01962551,
        "meta_mean_motion_dot": -0.01996921,
        "meta_mean_motion_ddot": 0,
        "tle_line1": "1 66358U 25254L   25336.25003472 -.01996921  00000+0 -19626-1 0  9991",
        "tle_line2": "2 66358  53.1592 327.0216 0001212 101.0657 115.0910 15.68534910  5231"
      },
      "geometry": {
        "type": "Point",
        "coordinates": [
          -31.437129691218956,
          4.723955582741952
        ]
      }
    },
    {
      "type": "Feature",
      "properties": {
        "norad_id": 66359,
        "name": "STARLINK-35805",
        "group": "last-30-days",
        "lat": 6.25325268799372,
        "lon": -30.280424872443163,
        "alt_km": 368.15545101562384,
        "timestamp": "2025-12-02T15:49:05.947501+00:00",
        "meta_object_name": "STARLINK-35805",
        "meta_object_id": "2025-254M",
        "meta_epoch": "2025-12-02T06:00:02.999808",
        "meta_mean_motion": 15.6853926,
        "meta_eccentricity": 0.00013332,
        "meta_inclination": 53.159,
        "meta_ra_of_asc_node": 327.018,
        "meta_arg_of_pericenter": 92.0627,
        "meta_mean_anomaly": 126.0086,
        "meta_ephemeris_type": 0,
        "meta_classification_type": "U",
        "meta_norad_cat_id": 66359,
        "meta_element_set_no": 999,
        "meta_rev_at_epoch": 520,
        "meta_bstar": -0.019679994,
        "meta_mean_motion_dot": -0.02002212,
        "meta_mean_motion_ddot": 0,
        "tle_line1": "1 66359U 25254M   25336.25003472 -.02002212  00000+0 -19680-1 0  9994",
        "tle_line2": "2 66359  53.1590 327.0180 0001333  92.0627 126.0086 15.68539260  5206"
      },
      "geometry": {
        "type": "Point",
        "coordinates": [
          -30.280424872443163,
          6.25325268799372
        ]
      }
    },
    {
      "type": "Feature",
      "properties": {
        "norad_id": 66360,
        "name": "STARLINK-35823",
        "group": "last-30-days",
        "lat": 9.305776082834203,
        "lon": -27.94475060893854,
        "alt_km": 367.6827698961815,
        "timestamp": "2025-12-02T15:49:05.947511+00:00",
        "meta_object_name": "STARLINK-35823",
        "meta_object_id": "2025-254N",
        "meta_epoch": "2025-12-02T06:00:02.999808",
        "meta_mean_motion": 15.6853311,
        "meta_eccentricity": 0.00013556,
        "meta_inclination": 53.159,
        "meta_ra_of_asc_node": 327.0092,
        "meta_arg_of_pericenter": 94.3715,
        "meta_mean_anomaly": 127.5388,
        "meta_ephemeris_type": 0,
        "meta_classification_type": "U",
        "meta_norad_cat_id": 66360,
        "meta_element_set_no": 999,
        "meta_rev_at_epoch": 523,
        "meta_bstar": -0.019621177,
        "meta_mean_motion_dot": -0.01996515,
        "meta_mean_motion_ddot": 0,
        "tle_line1": "1 66360U 25254N   25336.25003472 -.01996515  00000+0 -19621-1 0  9998",
        "tle_line2": "2 66360  53.1590 327.0092 0001355  94.3715 127.5388 15.68533110  5239"
      },
      "geometry": {
        "type": "Point",
        "coordinates": [
          -27.94475060893854,
          9.305776082834203
        ]
      }
    },
    {
      "type": "Feature",
      "properties": {
        "norad_id": 66361,
        "name": "STARLINK-35813",
        "group": "last-30-days",
        "lat": 7.780775898315065,
        "lon": -29.116809411693886,
        "alt_km": 367.92888862567725,
        "timestamp": "2025-12-02T15:49:05.947522+00:00",
        "meta_object_name": "STARLINK-35813",
        "meta_object_id": "2025-254P",
        "meta_epoch": "2025-12-02T06:00:02.999808",
        "meta_mean_motion": 15.68540811,
        "meta_eccentricity": 0.00013659,
        "meta_inclination": 53.1589,
        "meta_ra_of_asc_node": 327.0139,
        "meta_arg_of_pericenter": 93.6775,
        "meta_mean_anomaly": 126.3108,
        "meta_ephemeris_type": 0,
        "meta_classification_type": "U",
        "meta_norad_cat_id": 66361,
        "meta_element_set_no": 999,
        "meta_rev_at_epoch": 523,
        "meta_bstar": -0.01971368,
        "meta_mean_motion_dot": -0.02005366,
        "meta_mean_motion_ddot": 0,
        "tle_line1": "1 66361U 25254P   25336.25003472 -.02005366  00000+0 -19714-1 0  9998",
        "tle_line2": "2 66361  53.1589 327.0139 0001365  93.6775 126.3108 15.68540811  5232"
      },
      "geometry": {
        "type": "Point",
        "coordinates": [
          -29.116809411693886,
          7.780775898315065
        ]
      }
    }
  ]
}